start=new Date('2022-08-10T00:00:00.000Z').valueOf();
sats=[{"GP_ID":"209899967","CLASSIFICATION_TYPE":"U","OBJECT_ID":"2021-082D","COUNTRY_CODE":"US","EPHEMERIS_TYPE":"0","FILE":"3532882","RA_OF_ASC_NODE":"353.2148","ECCENTRICITY":"0.00028230","CENTER_NAME":"EARTH","MEAN_MOTION_DDOT":"0.0000000000000","MEAN_ANOMALY":"111.7274","BSTAR":"0.00041830000000","PERIAPSIS":"570.043","REF_FRAME":"TEME","APOAPSIS":"573.967","DECAY_DATE":null,"OBJECT_TYPE":"PAYLOAD","PERIOD":"96.106","SEMIMAJOR_AXIS":"6950.140","ARG_OF_PERICENTER":"248.3585","MEAN_MOTION":"14.98346997","MEAN_ELEMENT_THEORY":"SGP4","OBJECT_NAME":"STARLINK-3077","EPOCH":"2022-08-09T08:38:05.715168","NORAD_CAT_ID":"49133","TLE_LINE1":"1 49133U 21082D   22221.35978837  .00004904  00000-0  41830-3 0  9998","TLE_LINE2":"2 49133  70.0022 353.2148 0002823 248.3585 111.7274 14.98346997 50007","LAUNCH_DATE":"2021-09-14","ELEMENT_SET_NO":"999","SITE":"AFWTR","RCS_SIZE":"LARGE","REV_AT_EPOCH":"5000","INCLINATION":"70.0022","MEAN_MOTION_DOT":"0.00004904","TIME_SYSTEM":"UTC"},{"TLE_LINE1":"1 49134U 21082E   22221.35502833  .00000206  00000-0  25076-4 0  9994","NORAD_CAT_ID":"49134","EPOCH":"2022-08-09T08:31:14.447712","LAUNCH_DATE":"2021-09-14","ELEMENT_SET_NO":"999","TLE_LINE2":"2 49134  70.0016 353.2283 0003116 259.0960 100.9849 14.98326404 51205","SEMIMAJOR_AXIS":"6950.204","OBJECT_NAME":"STARLINK-3078","MEAN_MOTION":"14.98326404","MEAN_ELEMENT_THEORY":"SGP4","ARG_OF_PERICENTER":"259.0960","TIME_SYSTEM":"UTC","MEAN_MOTION_DOT":"0.00000206","RCS_SIZE":"LARGE","SITE":"AFWTR","INCLINATION":"70.0016","REV_AT_EPOCH":"5120","RA_OF_ASC_NODE":"353.2283","CENTER_NAME":"EARTH","ECCENTRICITY":"0.00031160","COUNTRY_CODE":"US","EPHEMERIS_TYPE":"0","OBJECT_ID":"2021-082E","GP_ID":"209900217","CLASSIFICATION_TYPE":"U","FILE":"3532882","OBJECT_TYPE":"PAYLOAD","DECAY_DATE":null,"PERIOD":"96.107","BSTAR":"0.00002507600000","MEAN_ANOMALY":"100.9849","MEAN_MOTION_DDOT":"0.0000000000000","APOAPSIS":"574.235","REF_FRAME":"TEME","PERIAPSIS":"569.903"},{"SITE":"AFWTR","RCS_SIZE":"LARGE","REV_AT_EPOCH":"5103","INCLINATION":"69.9982","MEAN_MOTION_DOT":"-0.00001240","TIME_SYSTEM":"UTC","SEMIMAJOR_AXIS":"6955.189","ARG_OF_PERICENTER":"259.9592","MEAN_MOTION":"14.96715843","MEAN_ELEMENT_THEORY":"SGP4","OBJECT_NAME":"STARLINK-3073","EPOCH":"2022-08-09T12:47:57.418080","TLE_LINE1":"1 49135U 21082F   22221.53330345 -.00001240  00000-0 -10035-3 0  9991","NORAD_CAT_ID":"49135","TLE_LINE2":"2 49135  69.9982 312.3945 0003408 259.9592 100.1182 14.96715843 51030","ELEMENT_SET_NO":"999","LAUNCH_DATE":"2021-09-14","MEAN_MOTION_DDOT":"0.0000000000000","MEAN_ANOMALY":"100.1182","BSTAR":"-0.00010035000000","PERIAPSIS":"574.684","REF_FRAME":"TEME","APOAPSIS":"579.424","DECAY_DATE":null,"OBJECT_TYPE":"PAYLOAD","PERIOD":"96.211","CLASSIFICATION_TYPE":"U","GP_ID":"209931188","OBJECT_ID":"2021-082F","COUNTRY_CODE":"US","EPHEMERIS_TYPE":"0","FILE":"3533123","RA_OF_ASC_NODE":"312.3945","ECCENTRICITY":"0.00034080","CENTER_NAME":"EARTH"},{"OBJECT_NAME":"STARLINK-3084","MEAN_MOTION":"14.96720544","MEAN_ELEMENT_THEORY":"SGP4","ARG_OF_PERICENTER":"249.2073","SEMIMAJOR_AXIS":"6955.174","LAUNCH_DATE":"2021-09-14","ELEMENT_SET_NO":"999","TLE_LINE2":"2 49136  70.0022 333.0642 0003512 249.2073 110.8709 14.96720544 50514","TLE_LINE1":"1 49136U 21082G   22221.36945061 -.00000091  00000-0  87795-7 0  9993","NORAD_CAT_ID":"49136","EPOCH":"2022-08-09T08:52:00.532704","REV_AT_EPOCH":"5051","INCLINATION":"70.0022","RCS_SIZE":"LARGE","SITE":"AFWTR","TIME_SYSTEM":"UTC","MEAN_MOTION_DOT":"-0.00000091","FILE":"3532882","COUNTRY_CODE":"US","EPHEMERIS_TYPE":"0","OBJECT_ID":"2021-082G","CLASSIFICATION_TYPE":"U","GP_ID":"209900705","CENTER_NAME":"EARTH","ECCENTRICITY":"0.00035120","RA_OF_ASC_NODE":"333.0642","APOAPSIS":"579.482","REF_FRAME":"TEME","PERIAPSIS":"574.597","BSTAR":"0.00000008779500","MEAN_ANOMALY":"110.8709","MEAN_MOTION_DDOT":"0.0000000000000","PERIOD":"96.210","OBJECT_TYPE":"PAYLOAD","DECAY_DATE":null},{"ARG_OF_PERICENTER":"253.0255","OBJECT_NAME":"STARLINK-3055","MEAN_MOTION":"14.96718000","MEAN_ELEMENT_THEORY":"SGP4","SEMIMAJOR_AXIS":"6955.182","ELEMENT_SET_NO":"999","LAUNCH_DATE":"2021-09-14","TLE_LINE2":"2 49137  70.0012 332.7534 0003345 253.0255 107.0536 14.96718000 50520","TLE_LINE1":"1 49137U 21082H   22221.49976770  .00000742  00000-0  72826-4 0  9997","NORAD_CAT_ID":"49137","EPOCH":"2022-08-09T11:59:39.929280","REV_AT_EPOCH":"5052","INCLINATION":"70.0012","SITE":"AFWTR","RCS_SIZE":"LARGE","MEAN_MOTION_DOT":"0.00000742","TIME_SYSTEM":"UTC","FILE":"3532882","CLASSIFICATION_TYPE":"U","GP_ID":"209899468","COUNTRY_CODE":"US","OBJECT_ID":"2021-082H","EPHEMERIS_TYPE":"0","CENTER_NAME":"EARTH","ECCENTRICITY":"0.00033450","RA_OF_ASC_NODE":"332.7534","PERIAPSIS":"574.721","APOAPSIS":"579.374","REF_FRAME":"TEME","MEAN_MOTION_DDOT":"0.0000000000000","BSTAR":"0.00007282600000","MEAN_ANOMALY":"107.0536","PERIOD":"96.211","DECAY_DATE":null,"OBJECT_TYPE":"PAYLOAD"},{"OBJECT_TYPE":"PAYLOAD","DECAY_DATE":null,"PERIOD":"96.106","MEAN_ANOMALY":"111.8192","BSTAR":"0.00009896600000","MEAN_MOTION_DDOT":"0.0000000000000","REF_FRAME":"TEME","APOAPSIS":"574.290","PERIAPSIS":"569.743","RA_OF_ASC_NODE":"353.2397","ECCENTRICITY":"0.00032710","CENTER_NAME":"EARTH","COUNTRY_CODE":"US","OBJECT_ID":"2021-082J","EPHEMERIS_TYPE":"0","GP_ID":"209899718","CLASSIFICATION_TYPE":"U","FILE":"3532882","TIME_SYSTEM":"UTC","MEAN_MOTION_DOT":"0.00001088","RCS_SIZE":"LARGE","SITE":"AFWTR","REV_AT_EPOCH":"5000","INCLINATION":"70.0016","EPOCH":"2022-08-09T08:24:21.542976","NORAD_CAT_ID":"49138","TLE_LINE1":"1 49138U 21082J   22221.35024934  .00001088  00000-0  98966-4 0  9996","TLE_LINE2":"2 49138  70.0016 353.2397 0003271 248.2619 111.8192 14.98343357 50003","LAUNCH_DATE":"2021-09-14","ELEMENT_SET_NO":"999","SEMIMAJOR_AXIS":"6950.152","MEAN_MOTION":"14.98343357","MEAN_ELEMENT_THEORY":"SGP4","OBJECT_NAME":"STARLINK-3058","ARG_OF_PERICENTER":"248.2619"},{"TIME_SYSTEM":"UTC","MEAN_MOTION_DOT":"-0.00000202","REV_AT_EPOCH":"5104","INCLINATION":"69.9992","RCS_SIZE":"LARGE","SITE":"AFWTR","ELEMENT_SET_NO":"999","LAUNCH_DATE":"2021-09-14","TLE_LINE2":"2 49139  69.9992 312.0838 0003132 264.7066  95.3734 14.96717017 51041","TLE_LINE1":"1 49139U 21082K   22221.65719938 -.00000202  00000-0 -96793-5 0  9991","NORAD_CAT_ID":"49139","EPOCH":"2022-08-09T15:46:22.026432","OBJECT_NAME":"STARLINK-3057","MEAN_ELEMENT_THEORY":"SGP4","MEAN_MOTION":"14.96717017","ARG_OF_PERICENTER":"264.7066","SEMIMAJOR_AXIS":"6955.185","PERIOD":"96.211","OBJECT_TYPE":"PAYLOAD","DECAY_DATE":null,"APOAPSIS":"579.229","REF_FRAME":"TEME","PERIAPSIS":"574.872","BSTAR":"-0.00000967930000","MEAN_ANOMALY":"95.3734","MEAN_MOTION_DDOT":"0.0000000000000","CENTER_NAME":"EARTH","ECCENTRICITY":"0.00031320","RA_OF_ASC_NODE":"312.0838","FILE":"3533123","COUNTRY_CODE":"US","EPHEMERIS_TYPE":"0","OBJECT_ID":"2021-082K","GP_ID":"209930688","CLASSIFICATION_TYPE":"U"},{"MEAN_ANOMALY":"100.0719","BSTAR":"0.00021142000000","MEAN_MOTION_DDOT":"0.0000000000000","REF_FRAME":"TEME","APOAPSIS":"579.273","PERIAPSIS":"574.824","OBJECT_TYPE":"PAYLOAD","DECAY_DATE":null,"PERIOD":"96.211","COUNTRY_CODE":"US","OBJECT_ID":"2021-082L","EPHEMERIS_TYPE":"0","CLASSIFICATION_TYPE":"U","GP_ID":"209930933","FILE":"3533123","RA_OF_ASC_NODE":"312.4451","ECCENTRICITY":"0.00031980","CENTER_NAME":"EARTH","RCS_SIZE":"LARGE","SITE":"AFWTR","INCLINATION":"69.9995","REV_AT_EPOCH":"5102","TIME_SYSTEM":"UTC","MEAN_MOTION_DOT":"0.00002329","SEMIMAJOR_AXIS":"6955.184","MEAN_MOTION":"14.96717608","MEAN_ELEMENT_THEORY":"SGP4","OBJECT_NAME":"STARLINK-3118","ARG_OF_PERICENTER":"260.0078","EPOCH":"2022-08-09T12:19:52.445280","TLE_LINE1":"1 49140U 21082L   22221.51380145  .00002329  00000-0  21142-3 0  9996","NORAD_CAT_ID":"49140","TLE_LINE2":"2 49140  69.9995 312.4451 0003198 260.0078 100.0719 14.96717608 51026","ELEMENT_SET_NO":"999","LAUNCH_DATE":"2021-09-14"},{"SITE":"AFWTR","RCS_SIZE":"LARGE","INCLINATION":"70.0000","REV_AT_EPOCH":"5120","MEAN_MOTION_DOT":"0.00000813","TIME_SYSTEM":"UTC","SEMIMAJOR_AXIS":"6950.170","ARG_OF_PERICENTER":"249.5077","OBJECT_NAME":"STARLINK-3093","MEAN_MOTION":"14.98337387","MEAN_ELEMENT_THEORY":"SGP4","TLE_LINE1":"1 49141U 21082M   22221.34548391  .00000813  00000-0  75892-4 0  9995","NORAD_CAT_ID":"49141","EPOCH":"2022-08-09T08:17:29.809824","ELEMENT_SET_NO":"999","LAUNCH_DATE":"2021-09-14","TLE_LINE2":"2 49141  70.0000 353.2381 0003290 249.5077 110.5729 14.98337387 51207","MEAN_MOTION_DDOT":"0.0000000000000","BSTAR":"0.00007589200000","MEAN_ANOMALY":"110.5729","PERIAPSIS":"569.748","APOAPSIS":"574.322","REF_FRAME":"TEME","DECAY_DATE":null,"OBJECT_TYPE":"PAYLOAD","PERIOD":"96.107","CLASSIFICATION_TYPE":"U","GP_ID":"209906835","EPHEMERIS_TYPE":"0","COUNTRY_CODE":"US","OBJECT_ID":"2021-082M","FILE":"3533085","RA_OF_ASC_NODE":"353.2381","CENTER_NAME":"EARTH","ECCENTRICITY":"0.00032900"},{"APOAPSIS":"579.194","REF_FRAME":"TEME","PERIAPSIS":"574.886","BSTAR":"-0.00000196950000","MEAN_ANOMALY":"102.4034","MEAN_MOTION_DDOT":"0.0000000000000","PERIOD":"96.210","OBJECT_TYPE":"PAYLOAD","DECAY_DATE":null,"FILE":"3533123","COUNTRY_CODE":"US","OBJECT_ID":"2021-082N","EPHEMERIS_TYPE":"0","GP_ID":"209930437","CLASSIFICATION_TYPE":"U","CENTER_NAME":"EARTH","ECCENTRICITY":"0.00030970","RA_OF_ASC_NODE":"312.4726","INCLINATION":"70.0008","REV_AT_EPOCH":"5102","RCS_SIZE":"LARGE","SITE":"AFWTR","TIME_SYSTEM":"UTC","MEAN_MOTION_DOT":"-0.00000114","OBJECT_NAME":"STARLINK-3042","MEAN_MOTION":"14.96720426","MEAN_ELEMENT_THEORY":"SGP4","ARG_OF_PERICENTER":"257.6777","SEMIMAJOR_AXIS":"6955.175","LAUNCH_DATE":"2021-09-14","ELEMENT_SET_NO":"999","TLE_LINE2":"2 49142  70.0008 312.4726 0003097 257.6777 102.4034 14.96720426 51025","NORAD_CAT_ID":"49142","TLE_LINE1":"1 49142U 21082N   22221.50890731 -.00000114  00000-0 -19695-5 0  9998","EPOCH":"2022-08-09T12:12:49.591584"}];
